ONEWEB-0388             
1 49314U 21090AM  24249.88536539 -.00000346  00000+0 -89617-3 0  9999
2 49314  87.9097  74.1369 0001617  86.3692 273.7626 13.19723583142060
ONEWEB-0390             
1 50470U 21132B   24250.17458121  .00000170  00000+0  40591-3 0  9996
2 50470  87.9157 135.1497 0002106  82.3852 277.7518 13.17649196133902
ONEWEB-0391             
1 50471U 21132C   24250.17617586  .00000080  00000+0  17363-3 0  9990
2 50471  87.9166 135.1390 0001989  67.9279 292.2063 13.17645904133905
ONEWEB-0392             
1 50472U 21132D   24249.74965926  .00000025  00000+0  31227-4 0  9991
2 50472  87.9153 135.2114 0002176  62.8188 297.3165 13.17649083132594
ONEWEB-0393             
1 50473U 21132E   24249.72394050  .00000045  00000+0  82608-4 0  9995
2 50473  87.9162 135.2020 0001985  71.8350 288.2997 13.17647145132587
ONEWEB-0394             
1 50474U 21132F   24249.67089384  .00000162  00000+0  37877-3 0  9998
2 50474  87.9075 104.7506 0001738  76.0686 284.0639 13.18686049135998
